2025-313M               
1 67259U 25313M   26017.29430942  .00014962  00000+0  68904-3 0  9993
2 67259  97.4151  94.4321 0015985 167.7030 192.4599 15.20280562  3006
SITRO-AIS-60            
1 67260U 25313N   26017.16417735  .00007930  00000+0  36936-3 0  9993
2 67260  97.4117  94.2807 0016180 169.5720 190.5854 15.20059596  2981
2025-313P               
1 67261U 25313P   26017.16110587  .00017932  00000+0  82013-3 0  9999
2 67261  97.4152  94.3052 0015757 168.5336 191.6262 15.20481477  2987
2025-313Q               
1 67262U 25313Q   26017.22840253  .00011971  00000+0  55257-3 0  9994
2 67262  97.4118  94.3482 0015844 170.0675 190.0876 15.20255262  2994
DCS-1                   
1 67263U 25313R   26017.16292216  .00010199  00000+0  47219-3 0  9998
2 67263  97.4131  94.2977 0015799 169.2113 190.9464 15.20196958  2981
2025-313S               
1 67264U 25313S   26017.22967321  .00007433  00000+0  34641-3 0  9994
2 67264  97.4201  94.3616 0015801 173.8871 186.2560 15.20068064  2999
SITRO-TD-4              
1 67265U 25313T   26017.09671555  .00009862  00000+0  45640-3 0  9990
2 67265  97.4110  94.2280 0015709 170.2372 189.9171 15.20220759  2976
SITRO-AIS-65            
1 67266U 25313U   26017.22828970  .00010259  00000+0  47446-3 0  9999
2 67266  97.4138  94.3638 0015657 168.5252 191.6343 15.20232350  2997
2025-313V               
1 67267U 25313V   26017.22777673  .00012574  00000+0  57967-3 0  9994
2 67267  97.4120  94.3515 0014872 174.0027 186.1389 15.20299756  2995
ZORKY-2M 7              
1 67268U 25313W   26017.22859757  .00009632  00000+0  44630-3 0  9993
2 67268  97.4120  94.3488 0015821 169.2566 190.9010 15.20183694  2991
2025-313X               
1 67269U 25313X   26017.16148952  .00014247  00000+0  65456-3 0  9992
2 67269  97.4147  94.3022 0015609 168.1430 192.0176 15.20379426  2982
SITRO-TD-3              
1 67270U 25313Y   26017.16284419  .00010570  00000+0  48907-3 0  9990
2 67270  97.4120  94.2945 0015760 169.6748 190.4814 15.20205280  2981
