CCSDS_OMM_VERS = 2.0
CREATION_DATE  = 
ORIGINATOR     = 

OBJECT_NAME    = 2025-313M
OBJECT_ID      = 2025-313M
CENTER_NAME    = EARTH
REF_FRAME      = TEME
TIME_SYSTEM    = UTC
MEAN_ELEMENT_THEORY = SGP/SGP4

EPOCH          = 2026-01-17T07:03:48.333888
MEAN_MOTION    = 15.20280562
ECCENTRICITY   = .00159855
INCLINATION    = 97.4151
RA_OF_ASC_NODE = 94.4321
ARG_OF_PERICENTER = 167.7030
MEAN_ANOMALY   = 192.4599

EPHEMERIS_TYPE = 0
CLASSIFICATION_TYPE = U
NORAD_CAT_ID   = 67259
ELEMENT_SET_NO = 999
REV_AT_EPOCH   = 300
BSTAR          = .68904349E-3
MEAN_MOTION_DOT = .14962E-3
MEAN_MOTION_DDOT = 0

CCSDS_OMM_VERS = 2.0
CREATION_DATE  = 
ORIGINATOR     = 

OBJECT_NAME    = SITRO-AIS-60
OBJECT_ID      = 2025-313N
CENTER_NAME    = EARTH
REF_FRAME      = TEME
TIME_SYSTEM    = UTC
MEAN_ELEMENT_THEORY = SGP/SGP4

EPOCH          = 2026-01-17T03:56:24.923040
MEAN_MOTION    = 15.20059596
ECCENTRICITY   = .00161808
INCLINATION    = 97.4117
RA_OF_ASC_NODE = 94.2807
ARG_OF_PERICENTER = 169.5720
MEAN_ANOMALY   = 190.5854

EPHEMERIS_TYPE = 0
CLASSIFICATION_TYPE = U
NORAD_CAT_ID   = 67260
ELEMENT_SET_NO = 999
REV_AT_EPOCH   = 298
BSTAR          = .36935792E-3
MEAN_MOTION_DOT = .793E-4
MEAN_MOTION_DDOT = 0

CCSDS_OMM_VERS = 2.0
CREATION_DATE  = 
ORIGINATOR     = 

OBJECT_NAME    = 2025-313P
OBJECT_ID      = 2025-313P
CENTER_NAME    = EARTH
REF_FRAME      = TEME
TIME_SYSTEM    = UTC
MEAN_ELEMENT_THEORY = SGP/SGP4

EPOCH          = 2026-01-17T03:51:59.547168
MEAN_MOTION    = 15.20481477
ECCENTRICITY   = .00157573
INCLINATION    = 97.4152
RA_OF_ASC_NODE = 94.3052
ARG_OF_PERICENTER = 168.5336
MEAN_ANOMALY   = 191.6262

EPHEMERIS_TYPE = 0
CLASSIFICATION_TYPE = U
NORAD_CAT_ID   = 67261
ELEMENT_SET_NO = 999
REV_AT_EPOCH   = 298
BSTAR          = .82012645E-3
MEAN_MOTION_DOT = .17932E-3
MEAN_MOTION_DDOT = 0

CCSDS_OMM_VERS = 2.0
CREATION_DATE  = 
ORIGINATOR     = 

OBJECT_NAME    = 2025-313Q
OBJECT_ID      = 2025-313Q
CENTER_NAME    = EARTH
REF_FRAME      = TEME
TIME_SYSTEM    = UTC
MEAN_ELEMENT_THEORY = SGP/SGP4

EPOCH          = 2026-01-17T05:28:53.978592
MEAN_MOTION    = 15.20255262
ECCENTRICITY   = .00158441
INCLINATION    = 97.4118
RA_OF_ASC_NODE = 94.3482
ARG_OF_PERICENTER = 170.0675
MEAN_ANOMALY   = 190.0876

EPHEMERIS_TYPE = 0
CLASSIFICATION_TYPE = U
NORAD_CAT_ID   = 67262
ELEMENT_SET_NO = 999
REV_AT_EPOCH   = 299
BSTAR          = .55257174E-3
MEAN_MOTION_DOT = .11971E-3
MEAN_MOTION_DDOT = 0

CCSDS_OMM_VERS = 2.0
CREATION_DATE  = 
ORIGINATOR     = 

OBJECT_NAME    = DCS-1
OBJECT_ID      = 2025-313R
CENTER_NAME    = EARTH
REF_FRAME      = TEME
TIME_SYSTEM    = UTC
MEAN_ELEMENT_THEORY = SGP/SGP4

EPOCH          = 2026-01-17T03:54:36.474624
MEAN_MOTION    = 15.20196958
ECCENTRICITY   = .00157997
INCLINATION    = 97.4131
RA_OF_ASC_NODE = 94.2977
ARG_OF_PERICENTER = 169.2113
MEAN_ANOMALY   = 190.9464

EPHEMERIS_TYPE = 0
CLASSIFICATION_TYPE = U
NORAD_CAT_ID   = 67263
ELEMENT_SET_NO = 999
REV_AT_EPOCH   = 298
BSTAR          = .47218915E-3
MEAN_MOTION_DOT = .10199E-3
MEAN_MOTION_DDOT = 0

CCSDS_OMM_VERS = 2.0
CREATION_DATE  = 
ORIGINATOR     = 

OBJECT_NAME    = 2025-313S
OBJECT_ID      = 2025-313S
CENTER_NAME    = EARTH
REF_FRAME      = TEME
TIME_SYSTEM    = UTC
MEAN_ELEMENT_THEORY = SGP/SGP4

EPOCH          = 2026-01-17T05:30:43.765344
MEAN_MOTION    = 15.20068064
ECCENTRICITY   = .00158015
INCLINATION    = 97.4201
RA_OF_ASC_NODE = 94.3616
ARG_OF_PERICENTER = 173.8871
MEAN_ANOMALY   = 186.2560

EPHEMERIS_TYPE = 0
CLASSIFICATION_TYPE = U
NORAD_CAT_ID   = 67264
ELEMENT_SET_NO = 999
REV_AT_EPOCH   = 299
BSTAR          = .34641325E-3
MEAN_MOTION_DOT = .7433E-4
MEAN_MOTION_DDOT = 0

CCSDS_OMM_VERS = 2.0
CREATION_DATE  = 
ORIGINATOR     = 

OBJECT_NAME    = SITRO-TD-4
OBJECT_ID      = 2025-313T
CENTER_NAME    = EARTH
REF_FRAME      = TEME
TIME_SYSTEM    = UTC
MEAN_ELEMENT_THEORY = SGP/SGP4

EPOCH          = 2026-01-17T02:19:16.223520
MEAN_MOTION    = 15.20220759
ECCENTRICITY   = .0015709
INCLINATION    = 97.4110
RA_OF_ASC_NODE = 94.2280
ARG_OF_PERICENTER = 170.2372
MEAN_ANOMALY   = 189.9171

EPHEMERIS_TYPE = 0
CLASSIFICATION_TYPE = U
NORAD_CAT_ID   = 67265
ELEMENT_SET_NO = 999
REV_AT_EPOCH   = 297
BSTAR          = .456398E-3
MEAN_MOTION_DOT = .9862E-4
MEAN_MOTION_DDOT = 0

CCSDS_OMM_VERS = 2.0
CREATION_DATE  = 
ORIGINATOR     = 

OBJECT_NAME    = SITRO-AIS-65
OBJECT_ID      = 2025-313U
CENTER_NAME    = EARTH
REF_FRAME      = TEME
TIME_SYSTEM    = UTC
MEAN_ELEMENT_THEORY = SGP/SGP4

EPOCH          = 2026-01-17T05:28:44.230080
MEAN_MOTION    = 15.20232350
ECCENTRICITY   = .00156578
INCLINATION    = 97.4138
RA_OF_ASC_NODE = 94.3638
ARG_OF_PERICENTER = 168.5252
MEAN_ANOMALY   = 191.6343

EPHEMERIS_TYPE = 0
CLASSIFICATION_TYPE = U
NORAD_CAT_ID   = 67266
ELEMENT_SET_NO = 999
REV_AT_EPOCH   = 299
BSTAR          = .47445588E-3
MEAN_MOTION_DOT = .10259E-3
MEAN_MOTION_DDOT = 0

CCSDS_OMM_VERS = 2.0
CREATION_DATE  = 
ORIGINATOR     = 

OBJECT_NAME    = 2025-313V
OBJECT_ID      = 2025-313V
CENTER_NAME    = EARTH
REF_FRAME      = TEME
TIME_SYSTEM    = UTC
MEAN_ELEMENT_THEORY = SGP/SGP4

EPOCH          = 2026-01-17T05:27:59.909472
MEAN_MOTION    = 15.20299756
ECCENTRICITY   = .00148729
INCLINATION    = 97.4120
RA_OF_ASC_NODE = 94.3515
ARG_OF_PERICENTER = 174.0027
MEAN_ANOMALY   = 186.1389

EPHEMERIS_TYPE = 0
CLASSIFICATION_TYPE = U
NORAD_CAT_ID   = 67267
ELEMENT_SET_NO = 999
REV_AT_EPOCH   = 299
BSTAR          = .57967073E-3
MEAN_MOTION_DOT = .12574E-3
MEAN_MOTION_DDOT = 0

CCSDS_OMM_VERS = 2.0
CREATION_DATE  = 
ORIGINATOR     = 

OBJECT_NAME    = ZORKY-2M 7
OBJECT_ID      = 2025-313W
CENTER_NAME    = EARTH
REF_FRAME      = TEME
TIME_SYSTEM    = UTC
MEAN_ELEMENT_THEORY = SGP/SGP4

EPOCH          = 2026-01-17T05:29:10.830048
MEAN_MOTION    = 15.20183694
ECCENTRICITY   = .0015821
INCLINATION    = 97.4120
RA_OF_ASC_NODE = 94.3488
ARG_OF_PERICENTER = 169.2566
MEAN_ANOMALY   = 190.9010

EPHEMERIS_TYPE = 0
CLASSIFICATION_TYPE = U
NORAD_CAT_ID   = 67268
ELEMENT_SET_NO = 999
REV_AT_EPOCH   = 299
BSTAR          = .4462976E-3
MEAN_MOTION_DOT = .9632E-4
MEAN_MOTION_DDOT = 0

CCSDS_OMM_VERS = 2.0
CREATION_DATE  = 
ORIGINATOR     = 

OBJECT_NAME    = 2025-313X
OBJECT_ID      = 2025-313X
CENTER_NAME    = EARTH
REF_FRAME      = TEME
TIME_SYSTEM    = UTC
MEAN_ELEMENT_THEORY = SGP/SGP4

EPOCH          = 2026-01-17T03:52:32.694528
MEAN_MOTION    = 15.20379426
ECCENTRICITY   = .00156092
INCLINATION    = 97.4147
RA_OF_ASC_NODE = 94.3022
ARG_OF_PERICENTER = 168.1430
MEAN_ANOMALY   = 192.0176

EPHEMERIS_TYPE = 0
CLASSIFICATION_TYPE = U
NORAD_CAT_ID   = 67269
ELEMENT_SET_NO = 999
REV_AT_EPOCH   = 298
BSTAR          = .6545592E-3
MEAN_MOTION_DOT = .14247E-3
MEAN_MOTION_DDOT = 0

CCSDS_OMM_VERS = 2.0
CREATION_DATE  = 
ORIGINATOR     = 

OBJECT_NAME    = SITRO-TD-3
OBJECT_ID      = 2025-313Y
CENTER_NAME    = EARTH
REF_FRAME      = TEME
TIME_SYSTEM    = UTC
MEAN_ELEMENT_THEORY = SGP/SGP4

EPOCH          = 2026-01-17T03:54:29.738016
MEAN_MOTION    = 15.20205280
ECCENTRICITY   = .00157609
INCLINATION    = 97.4120
RA_OF_ASC_NODE = 94.2945
ARG_OF_PERICENTER = 169.6748
MEAN_ANOMALY   = 190.4814

EPHEMERIS_TYPE = 0
CLASSIFICATION_TYPE = U
NORAD_CAT_ID   = 67270
ELEMENT_SET_NO = 999
REV_AT_EPOCH   = 298
BSTAR          = .48907388E-3
MEAN_MOTION_DOT = .1057E-3
MEAN_MOTION_DDOT = 0

